{
  "type": "FeatureCollection",
  "features": [
    {
      "type": "Feature",
      "properties": {
        "norad_id": 45527,
        "name": "FENGYUN 1C DEB",
        "group": "fengyun-1c-debris",
        "lat": -56.601890664978534,
        "lon": 61.08550511576059,
        "alt_km": 797.7602319847438,
        "timestamp": "2025-12-06T22:38:43.018573+00:00",
        "meta_object_name": "FENGYUN 1C DEB",
        "meta_object_id": "1999-025EYS",
        "meta_epoch": "2025-12-05T16:34:12.940320",
        "meta_mean_motion": 14.2442317,
        "meta_eccentricity": 0.00545865,
        "meta_inclination": 98.7389,
        "meta_ra_of_asc_node": 46.3484,
        "meta_arg_of_pericenter": 245.8335,
        "meta_mean_anomaly": 113.7131,
        "meta_ephemeris_type": 0,
        "meta_classification_type": "U",
        "meta_norad_cat_id": 45527,
        "meta_element_set_no": 999,
        "meta_rev_at_epoch": 39479,
        "meta_bstar": 0.0031152835,
        "meta_mean_motion_dot": 7.285e-05,
        "meta_mean_motion_ddot": 0,
        "tle_line1": "1 45527U 99025EYS 25339.69042755  .00007285  00000+0  31153-2 0  9994",
        "tle_line2": "2 45527  98.7389  46.3484 0054586 245.8335 113.7131 14.24423170394793"
      },
      "geometry": {
        "type": "Point",
        "coordinates": [
          61.08550511576059,
          -56.601890664978534
        ]
      }
    },
    {
      "type": "Feature",
      "properties": {
        "norad_id": 46440,
        "name": "FENGYUN 1C DEB",
        "group": "fengyun-1c-debris",
        "lat": 22.62709065044484,
        "lon": 4.485616047463843,
        "alt_km": 902.0980297848073,
        "timestamp": "2025-12-06T22:38:43.018584+00:00",
        "meta_object_name": "FENGYUN 1C DEB",
        "meta_object_id": "1999-025EYV",
        "meta_epoch": "2025-11-30T21:42:54.078912",
        "meta_mean_motion": 14.20290607,
        "meta_eccentricity": 0.0175806,
        "meta_inclination": 98.5947,
        "meta_ra_of_asc_node": 2.2289,
        "meta_arg_of_pericenter": 169.3708,
        "meta_mean_anomaly": 316.1091,
        "meta_ephemeris_type": 0,
        "meta_classification_type": "U",
        "meta_norad_cat_id": 46440,
        "meta_element_set_no": 999,
        "meta_rev_at_epoch": 62201,
        "meta_bstar": 0.00034066806,
        "meta_mean_motion_dot": 8.08e-06,
        "meta_mean_motion_ddot": 0,
        "tle_line1": "1 46440U 99025EYV 25334.90479258  .00000808  00000+0  34067-3 0  9992",
        "tle_line2": "2 46440  98.5947   2.2289 0175806 169.3708 316.1091 14.20290607622019"
      },
      "geometry": {
        "type": "Point",
        "coordinates": [
          4.485616047463843,
          22.62709065044484
        ]
      }
    },
    {
      "type": "Feature",
      "properties": {
        "norad_id": 46443,
        "name": "FENGYUN 1C DEB",
        "group": "fengyun-1c-debris",
        "lat": 58.22100275963772,
        "lon": 32.48816846981676,
        "alt_km": 802.8556018370418,
        "timestamp": "2025-12-06T22:38:43.018594+00:00",
        "meta_object_name": "FENGYUN 1C DEB",
        "meta_object_id": "1999-025EYY",
        "meta_epoch": "2025-12-06T03:46:52.230144",
        "meta_mean_motion": 14.10780254,
        "meta_eccentricity": 0.00966861,
        "meta_inclination": 99.2162,
        "meta_ra_of_asc_node": 46.8752,
        "meta_arg_of_pericenter": 14.7934,
        "meta_mean_anomaly": 14.1284,
        "meta_ephemeris_type": 0,
        "meta_classification_type": "U",
        "meta_norad_cat_id": 46443,
        "meta_element_set_no": 999,
        "meta_rev_at_epoch": 59503,
        "meta_bstar": 0.0025809567,
        "meta_mean_motion_dot": 4.781e-05,
        "meta_mean_motion_ddot": 0,
        "tle_line1": "1 46443U 99025EYY 25340.15754896  .00004781  00000+0  25810-2 0  9992",
        "tle_line2": "2 46443  99.2162  46.8752 0096686  14.7934  14.1284 14.10780254595031"
      },
      "geometry": {
        "type": "Point",
        "coordinates": [
          32.48816846981676,
          58.22100275963772
        ]
      }
    },
    {
      "type": "Feature",
      "properties": {
        "norad_id": 46444,
        "name": "FENGYUN 1C DEB",
        "group": "fengyun-1c-debris",
        "lat": 60.10585003885591,
        "lon": 178.1872348252135,
        "alt_km": 755.8270266356667,
        "timestamp": "2025-12-06T22:38:43.018604+00:00",
        "meta_object_name": "FENGYUN 1C DEB",
        "meta_object_id": "1999-025EYZ",
        "meta_epoch": "2025-12-06T07:00:57.282624",
        "meta_mean_motion": 14.27131481,
        "meta_eccentricity": 0.008372,
        "meta_inclination": 98.5117,
        "meta_ra_of_asc_node": 342.454,
        "meta_arg_of_pericenter": 169.7259,
        "meta_mean_anomaly": 205.8382,
        "meta_ephemeris_type": 0,
        "meta_classification_type": "U",
        "meta_norad_cat_id": 46444,
        "meta_element_set_no": 999,
        "meta_rev_at_epoch": 62490,
        "meta_bstar": 0.00087017371,
        "meta_mean_motion_dot": 2.161e-05,
        "meta_mean_motion_ddot": 0,
        "tle_line1": "1 46444U 99025EYZ 25340.29232966  .00002161  00000+0  87017-3 0  9995",
        "tle_line2": "2 46444  98.5117 342.4540 0083720 169.7259 205.8382 14.27131481624907"
      },
      "geometry": {
        "type": "Point",
        "coordinates": [
          178.1872348252135,
          60.10585003885591
        ]
      }
    },
    {
      "type": "Feature",
      "properties": {
        "norad_id": 46449,
        "name": "FENGYUN 1C DEB",
        "group": "fengyun-1c-debris",
        "lat": 79.12921327297828,
        "lon": -36.9362729330031,
        "alt_km": 953.934304989717,
        "timestamp": "2025-12-06T22:38:43.018614+00:00",
        "meta_object_name": "FENGYUN 1C DEB",
        "meta_object_id": "1999-025EZE",
        "meta_epoch": "2025-11-27T19:57:02.428704",
        "meta_mean_motion": 14.19021773,
        "meta_eccentricity": 0.02029501,
        "meta_inclination": 98.6463,
        "meta_ra_of_asc_node": 6.5721,
        "meta_arg_of_pericenter": 314.0231,
        "meta_mean_anomaly": 44.4375,
        "meta_ephemeris_type": 0,
        "meta_classification_type": "U",
        "meta_norad_cat_id": 46449,
        "meta_element_set_no": 999,
        "meta_rev_at_epoch": 57425,
        "meta_bstar": 0.00050383916,
        "meta_mean_motion_dot": 1.244e-05,
        "meta_mean_motion_ddot": 0,
        "tle_line1": "1 46449U 99025EZE 25331.83127811  .00001244  00000+0  50384-3 0  9990",
        "tle_line2": "2 46449  98.6463   6.5721 0202950 314.0231  44.4375 14.19021773574253"
      },
      "geometry": {
        "type": "Point",
        "coordinates": [
          -36.9362729330031,
          79.12921327297828
        ]
      }
    },
    {
      "type": "Feature",
      "properties": {
        "norad_id": 46450,
        "name": "FENGYUN 1C DEB",
        "group": "fengyun-1c-debris",
        "lat": -27.509379452542543,
        "lon": 13.99119144867979,
        "alt_km": 971.3526263424992,
        "timestamp": "2025-12-06T22:38:43.018624+00:00",
        "meta_object_name": "FENGYUN 1C DEB",
        "meta_object_id": "1999-025EZF",
        "meta_epoch": "2025-12-05T08:02:04.531488",
        "meta_mean_motion": 14.03487507,
        "meta_eccentricity": 0.0182173,
        "meta_inclination": 98.079,
        "meta_ra_of_asc_node": 196.8025,
        "meta_arg_of_pericenter": 82.0832,
        "meta_mean_anomaly": 280.097,
        "meta_ephemeris_type": 0,
        "meta_classification_type": "U",
        "meta_norad_cat_id": 46450,
        "meta_element_set_no": 999,
        "meta_rev_at_epoch": 61015,
        "meta_bstar": 0.0037253219,
        "meta_mean_motion_dot": 6.729e-05,
        "meta_mean_motion_ddot": 0,
        "tle_line1": "1 46450U 99025EZF 25339.33477467  .00006729  00000+0  37253-2 0  9992",
        "tle_line2": "2 46450  98.0790 196.8025 0182173  82.0832 280.0970 14.03487507610158"
      },
      "geometry": {
        "type": "Point",
        "coordinates": [
          13.99119144867979,
          -27.509379452542543
        ]
      }
    },
    {
      "type": "Feature",
      "properties": {
        "norad_id": 46451,
        "name": "FENGYUN 1C DEB",
        "group": "fengyun-1c-debris",
        "lat": -5.473462350496777,
        "lon": 179.81260300524676,
        "alt_km": 710.0290056586073,
        "timestamp": "2025-12-06T22:38:43.018635+00:00",
        "meta_object_name": "FENGYUN 1C DEB",
        "meta_object_id": "1999-025EZG",
        "meta_epoch": "2025-12-06T08:19:16.866336",
        "meta_mean_motion": 14.20265955,
        "meta_eccentricity": 0.01713541,
        "meta_inclination": 98.1565,
        "meta_ra_of_asc_node": 0.0492,
        "meta_arg_of_pericenter": 204.5085,
        "meta_mean_anomaly": 171.6442,
        "meta_ephemeris_type": 0,
        "meta_classification_type": "U",
        "meta_norad_cat_id": 46451,
        "meta_element_set_no": 999,
        "meta_rev_at_epoch": 56916,
        "meta_bstar": 0.0047466269,
        "meta_mean_motion_dot": 0.00011737,
        "meta_mean_motion_ddot": 0,
        "tle_line1": "1 46451U 99025EZG 25340.34672299  .00011737  00000+0  47466-2 0  9998",
        "tle_line2": "2 46451  98.1565   0.0492 0171354 204.5085 171.6442 14.20265955569167"
      },
      "geometry": {
        "type": "Point",
        "coordinates": [
          179.81260300524676,
          -5.473462350496777
        ]
      }
    }
  ]
}